[
    {
        "Altitude(m)": 705783.9782018207,
        "Argument of Periapsis(deg)": 0.011390121186627068,
        "Eccentricity": 0.0,
        "Inclination(deg)": 45.0,
        "Latitude(deg)": 38.17936606059868,
        "Longitude(deg)": -44.319160734942265,
        "Mean Anomaly(deg)": 60.624116647480825,
        "RAAN(deg)": 4.989248058541796,
        "Satellite Name": "Constellation 1 25",
        "Satellite Number": 25,
        "Semi-Major Axis(m)": 7083131.272910544,
        "Time(s)": 190
    },
    {
        "Altitude(m)": 705789.5328315318,
        "Argument of Periapsis(deg)": 0.011450069192872472,
        "Eccentricity": 0.0,
        "Inclination(deg)": 45.0,
        "Latitude(deg)": 38.20618143914231,
        "Longitude(deg)": -44.25404940087728,
        "Mean Anomaly(deg)": 60.684817787730715,
        "RAAN(deg)": 4.989191469376227,
        "Satellite Name": "Constellation 1 25",
        "Satellite Number": 25,
        "Semi-Major Axis(m)": 7083131.272910544,
        "Time(s)": 191
    },
    {
        "Altitude(m)": 705795.0819066903,
        "Argument of Periapsis(deg)": 0.01151001719911788,
        "Eccentricity": 0.0,
        "Inclination(deg)": 45.0,
        "Latitude(deg)": 38.232955865468455,
        "Longitude(deg)": -44.18888733725978,
        "Mean Anomaly(deg)": 60.74551892798062,
        "RAAN(deg)": 4.989134880210657,
        "Satellite Name": "Constellation 1 25",
        "Satellite Number": 25,
        "Semi-Major Axis(m)": 7083131.272910544,
        "Time(s)": 192
    },
    {
        "Altitude(m)": 705800.625393142,
        "Argument of Periapsis(deg)": 0.011569965205363285,
        "Eccentricity": 0.0,
        "Inclination(deg)": 45.0,
        "Latitude(deg)": 38.25968927099224,
        "Longitude(deg)": -44.123674703767634,
        "Mean Anomaly(deg)": 60.80622006823052,
        "RAAN(deg)": 4.989078291045088,
        "Satellite Name": "Constellation 1 25",
        "Satellite Number": 25,
        "Semi-Major Axis(m)": 7083131.272910544,
        "Time(s)": 193
    },
    {
        "Altitude(m)": 705806.1632567742,
        "Argument of Periapsis(deg)": 0.01162991321160869,
        "Eccentricity": 0.0,
        "Inclination(deg)": 45.0,
        "Latitude(deg)": 38.286381587099335,
        "Longitude(deg)": -44.05841115614307,
        "Mean Anomaly(deg)": 60.86692120848041,
        "RAAN(deg)": 4.989021701879518,
        "Satellite Name": "Constellation 1 25",
        "Satellite Number": 25,
        "Semi-Major Axis(m)": 7083131.272910544,
        "Time(s)": 194
    },
    {
        "Altitude(m)": 705811.6954635093,
        "Argument of Periapsis(deg)": 0.011689861217854095,
        "Eccentricity": 0.0,
        "Inclination(deg)": 45.0,
        "Latitude(deg)": 38.31303274514537,
        "Longitude(deg)": -43.99309685477554,
        "Mean Anomaly(deg)": 60.92762234873032,
        "RAAN(deg)": 4.988965112713949,
        "Satellite Name": "Constellation 1 25",
        "Satellite Number": 25,
        "Semi-Major Axis(m)": 7083131.272910544,
        "Time(s)": 195
    },
    {
        "Altitude(m)": 705817.2219793177,
        "Argument of Periapsis(deg)": 0.0117498092240995,
        "Eccentricity": 0.0,
        "Inclination(deg)": 45.0,
        "Latitude(deg)": 38.33964267645696,
        "Longitude(deg)": -43.927731792315186,
        "Mean Anomaly(deg)": 60.988323488980214,
        "RAAN(deg)": 4.988908523548379,
        "Satellite Name": "Constellation 1 25",
        "Satellite Number": 25,
        "Semi-Major Axis(m)": 7083131.272910544,
        "Time(s)": 196
    },
    {
        "Altitude(m)": 705822.7427702197,
        "Argument of Periapsis(deg)": 0.011809757230344905,
        "Eccentricity": 0.0,
        "Inclination(deg)": 45.0,
        "Latitude(deg)": 38.36621131233213,
        "Longitude(deg)": -43.86231596177176,
        "Mean Anomaly(deg)": 61.04902462923011,
        "RAAN(deg)": 4.98885193438281,
        "Satellite Name": "Constellation 1 25",
        "Satellite Number": 25,
        "Semi-Major Axis(m)": 7083131.272910544,
        "Time(s)": 197
    },
    {
        "Altitude(m)": 705828.2578022699,
        "Argument of Periapsis(deg)": 0.011869705236590313,
        "Eccentricity": 0.0,
        "Inclination(deg)": 45.0,
        "Latitude(deg)": 38.39273858404063,
        "Longitude(deg)": -43.79684935651573,
        "Mean Anomaly(deg)": 61.109725769480015,
        "RAAN(deg)": 4.98879534521724,
        "Satellite Name": "Constellation 1 25",
        "Satellite Number": 25,
        "Semi-Major Axis(m)": 7083131.272910544,
        "Time(s)": 198
    },
    {
        "Altitude(m)": 705833.7670415645,
        "Argument of Periapsis(deg)": 0.011929653242835719,
        "Eccentricity": 0.0,
        "Inclination(deg)": 45.0,
        "Latitude(deg)": 38.4192244228245,
        "Longitude(deg)": -43.73133197027986,
        "Mean Anomaly(deg)": 61.17042690972991,
        "RAAN(deg)": 4.988738756051671,
        "Satellite Name": "Constellation 1 25",
        "Satellite Number": 25,
        "Semi-Major Axis(m)": 7083131.272910544,
        "Time(s)": 199
    }
]